AEROCUBE 12A            
1 43556U 18046C   19234.75988843  .00000198  00000-0  19569-4 0  9995
2 43556  51.6429 104.5003 0007904 306.2195  53.8054 15.28842068 61513
AEROCUBE 12B            
1 43557U 18046D   19234.64840752  .00001109  00000-0  51797-4 0  9992
2 43557  51.6427 105.2516 0007926 304.9119  55.1115 15.28696476 61449
UITMSAT-1               
1 43589U 98067PD  19234.78496903  .00010253  00000-0  11621-3 0  9999
2 43589  51.6369  14.2454 0005381  39.5338 320.6048 15.63039732 58925
MAYA-1                  
1 43590U 98067PE  19234.39568564  .00009818  00000-0  11149-3 0  9991
2 43590  51.6374  16.1510 0005399  39.5892 320.5496 15.63049400 58795
BHUTAN-1                
1 43591U 98067PF  19234.76756007  .00009985  00000-0  11300-3 0  9998
2 43591  51.6381  14.1615 0005583  40.5870 319.5539 15.63116260 58853
SIRIUSSAT-1             
1 43595U 98067PG  19234.91678277  .00008807  00000-0  10386-3 0  9996
2 43595  51.6370  15.1312 0003348   1.3059 358.7943 15.62228501 58036
SIRIUSSAT-2             
1 43596U 98067PH  19234.88986874  .00008725  00000-0  10360-3 0  9999
2 43596  51.6383  15.7429 0003891   0.9284 359.1716 15.62060908 58021
TANUSHA-3               
1 43597U 98067PJ  19234.88125339  .00011312  00000-0  12327-3 0  9992
2 43597  51.6365  13.3629 0003470  14.2025 345.9067 15.63936500 58058
SURFSAT                 
1 43614U 18070B   19234.67837597  .00001540  00000-0  41584-4 0  9991
2 43614  93.0264  30.4765 0018230  60.2612 300.0453 15.37732172 52392
CP7 (DAVE)              
1 43615U 18070C   19234.88290743  .00001375  00000-0  37239-4 0  9999
2 43615  93.0266  30.5608 0018340  59.1533 301.1521 15.37640418 52426
ELFIN-B                 
1 43616U 18070D   19234.86288274  .00001780  00000-0  47036-4 0  9990
2 43616  93.0229  30.4617 0019136  62.0543 298.2644 15.38346531 52436
ELFIN-A                 
1 43617U 18070E   19234.85480961  .00002291  00000-0  60429-4 0  9996
2 43617  93.0288  30.7241 0018281  59.7415 300.5645 15.38399501 52432
CUBEBEL-1 (BSUSAT-1)    
1 43666U 18083E   19234.90120666  .00000364  00000-0  21462-4 0  9996
2 43666  97.5173 258.9281 0014170 327.8089 153.5452 15.17668980 45177
DEBRISSAT-2             
1 43680U 98067PR  19234.88880220  .00014704  00000-0  15136-3 0  9991
2 43680  51.6374  12.7072 0003301  27.8439 332.2733 15.65107335 66795
CICERO 10               
1 43690U 18088A   19234.88108969  .00000399  00000-0  16773-4 0  9994
2 43690  85.0360 275.5920 0013958 337.3572  22.7051 15.19731974 43250
IRVINE01                
1 43693U 18088D   19234.85891182  .00001177  00000-0  50313-4 0  9993
2 43693  85.0334 275.0772 0016570 319.4188  40.5817 15.21561422 43273
PROXIMA I               
1 43694U 18088E   19234.88503915  .00000485  00000-0  19707-4 0  9994
2 43694  85.0302 274.8709 0017516 309.3950  50.5740 15.21455177 43299
PROXIMA II              
1 43696U 18088G   19234.88396974  .00000488  00000-0  19838-4 0  9999
2 43696  85.0303 274.8729 0017536 309.3281  50.6405 15.21459903 43282
FACSAT-1                
1 43721U 18096C   19234.89995585  .00000819  00000-0  34162-4 0  9996
2 43721  97.4555 304.6499 0019647  99.6443 260.7016 15.26414817 40680
CENTAURI-2              
1 43722U 18096D   19234.67410978  .00001068  00000-0  43349-4 0  9995
2 43722  97.4557 304.4939 0019832 100.8767 259.4704 15.26657215 40646
INNOSAT-2               
1 43738U 18096V   19234.90567287  .00001525  00000-0  56623-4 0  9991
2 43738  97.4562 305.5653 0026040 110.4009 250.0031 15.28856133 40742
SIRION PATHFINDER-2     
1 43759U 18099B   19234.90375770 -.00000128  00000-0 -63489-5 0  9990
2 43759  97.7412 306.0774 0015851 102.0064 258.2934 14.95151265 39172
CORVUS-BC 4             
1 43767U 18099K   19234.86716399  .00000203  00000-0  24053-4 0  9995
2 43767  97.7396 305.7694 0013320 105.3600 254.9093 14.94591217 39151
MOVE-II                 
1 43780U 18099Y   19234.65659068  .00000008  00000-0  60251-5 0  9990
2 43780  97.7405 305.7424 0015044 113.6777 246.6024 14.95098559 39110
SPACEBEE-7              
1 43816U 18099BL  19234.86020822  .00000054  00000-0  10092-4 0  9991
2 43816  97.7417 306.1375 0014955  99.4929 260.7982 14.95442993 38713
SPACEBEE-5              
1 43817U 18099BM  19234.83529630  .00000410  00000-0  41984-4 0  9990
2 43817  97.7444 306.2126 0014967 100.1633 260.1277 14.95719917 38718
SPACEBEE-6              
1 43818U 18099BN  19234.65099286 -.00000080  00000-0 -19817-5 0  9996
2 43818  97.7426 305.9630 0014899 100.0312 260.2591 14.95532500 38836
SHIELDS 1               
1 43850U 18104B   19234.44589305  .00000042  00000-0  00000-0 0  9997
2 43850  85.0303  13.6483 0017910  91.3536 268.9756 15.21119206 37866
STF-1                   
1 43852U 18104D   19234.73396373  .00000042  00000-0  00000-0 0  9992
2 43852  85.0349  13.7484 0017181 102.6013 257.7156 15.20683829 37895
ZACUBE-2                
1 43907U 18111AH  19234.86645765  .00000278  00000-0  14163-4 0  9997
2 43907  97.2839 138.2976 0023201 119.0957 241.2608 15.24233074 36372
LUME 1                  
1 43908U 18111AJ  19234.72119116  .00000542  00000-0  24825-4 0  9999
2 43908  97.2839 138.1864 0023099 119.6117 240.7426 15.24413975 36357
AOBA VELOX-IV           
1 43940U 19003J   19234.95476137  .00000919  00000-0  40620-4 0  9999
2 43940  97.2724 290.9237 0024132 197.2429 265.4774 15.23950362 33020
CATSAT-2                
1 44029U 98067PV  19234.89229851  .00006940  00000-0  99865-4 0  9992
2 44029  51.6403  24.7750 0005050  37.0327 323.1012 15.57298433 31730
DELPHINI                
1 44030U 98067PW  19234.81603889  .00007491  00000-0  10655-3 0  9994
2 44030  51.6388  24.9989 0004706  33.6011 326.5279 15.57477108 31694
UNITE                   
1 44031U 98067PX  19234.44609107  .00004485  00000-0  69465-4 0  9997
2 44031  51.6401  27.7826 0003451  32.1237 327.9964 15.56269994 31622
TECHEDSAT 8             
1 44032U 98067PY  19234.91339792  .00017550  00000-0  20333-3 0  9997
2 44032  51.6386  21.1498 0003274  26.8046 333.3117 15.61908440 31734
CATSAT-1                
1 44033U 98067PZ  19234.89202710  .00006556  00000-0  94673-4 0  9997
2 44033  51.6405  24.7737 0004889  37.9815 322.1521 15.57310728 31648
RAAVANA-1               
1 44329U 98067QE  19234.80137647  .00004559  00000-0  80274-4 0  9995
2 44329  51.6418  30.1627 0006947 328.4367  31.6205 15.52594881 10373
UGUISU                  
1 44330U 98067QF  19234.80298602  .00004540  00000-0  80082-4 0  9993
2 44330  51.6419  30.1730 0006899 326.9990  33.0568 15.52555468 10356
NEPALISAT-1             
1 44331U 98067QG  19234.86424342  .00004313  00000-0  76263-4 0  9996
2 44331  51.6419  29.8326 0006953 329.8096  30.2493 15.52629468 10373
SPOOQY-1                
1 44332U 98067QH  19234.79831436  .00004610  00000-0  80894-4 0  9990
2 44332  51.6417  30.1411 0005736 332.3533  27.7151 15.52664619 10329
SPACEBEE-9              
1 44370U 19037F   19234.66061963 -.00000348  00000-0  00000-0 0  9990
2 44370  45.0199 346.6378 0014094 228.5055 131.5286 15.39448135  8344
SPACEBEE-8              
1 44371U 19037G   19234.58823052 -.00000351  00000-0  00000-0 0  9991
2 44371  45.0172 346.9544 0016917 219.6850 140.5043 15.39835371  8325
MOVE-IIB                
1 44398U 19038N   19234.88909774  .00000687  00000-0  43896-4 0  9995
2 44398  97.4929 195.8898 0027355  79.7701 280.6612 15.11625863  7315
SONATE                  
1 44400U 19038Q   19234.88776375  .00000250  00000-0  18354-4 0  9995
2 44400  97.4941 195.8911 0027073  78.2279 282.1986 15.11647413  7316
LUCKY-7                 
1 44406U 19038W   19234.81567262  .00000288  00000-0  20506-4 0  9990
2 44406  97.4940 195.8338 0026572  78.4314 281.9897 15.11834297  7292
BEESAT 9                
1 44412U 19038AC  19234.88361344  .00000415  00000-0  27941-4 0  9999
2 44412  97.4939 195.8956 0024743  83.6443 276.7604 15.11785969  7000
JAISAT-1                
1 44419U 19038F   19234.86770903  .00000395  00000-0  26428-4 0  9995
2 44419  97.4942 195.9175 0023615  83.6871 276.7049 15.12281268  7318
SWIATOWID               
1 44426U 98067QL  19234.82632128  .00006675  00000-0  11559-3 0  9999
2 44426  51.6425  30.3331 0003992 285.3347  74.7201 15.52203187  7858
KRAKSAT                 
1 44427U 98067QM  19234.85725957  .00003290  00000-0  61448-4 0  9999
2 44427  51.6449  30.2208 0003258 278.1902 233.1052 15.51918639  7892
VCC A                   
1 44428U 98067QN  19233.98648389  .00004621  00000-0  82486-4 0  9990
2 44428  51.6428  34.4740 0002888 300.9405  59.1300 15.52164028  7761
ENTRYSAT                
1 44429U 98067QP  19234.43569630  .00005354  00000-0  94083-4 0  9993
2 44429  51.6427  32.2246 0002760 293.6651  66.4049 15.52249984  7832
VCC C                   
1 44430U 98067QQ  19234.82341537  .00006083  00000-0  10599-3 0  9991
2 44430  51.6429  30.3144 0002959 303.9668  56.1040 15.52210212  6721
VCC B                   
1 44431U 98067QR  19233.66548765  .00004782  00000-0  85179-4 0  9996
2 44431  51.6432  36.0802 0003027 298.3275  61.7409 15.52135998  7659
